[{"OBJECT_NAME":"IRIDIUM 33 DEB","OBJECT_ID":"1997-051GC","EPOCH":"2026-04-26T23:48:10.429632","MEAN_MOTION":14.4343574,"ECCENTRICITY":0.00324401,"INCLINATION":86.3404,"RA_OF_ASC_NODE":314.1633,"ARG_OF_PERICENTER":46.1712,"MEAN_ANOMALY":106.5846,"EPHEMERIS_TYPE":0,"CLASSIFICATION_TYPE":"U","NORAD_CAT_ID":34487,"ELEMENT_SET_NO":999,"REV_AT_EPOCH":90199,"BSTAR":0.00015629118,"MEAN_MOTION_DOT":5.51e-6,"MEAN_MOTION_DDOT":0},{"OBJECT_NAME":"IRIDIUM 33 DEB","OBJECT_ID":"1997-051GH","EPOCH":"2026-04-25T05:06:01.075680","MEAN_MOTION":14.28570693,"ECCENTRICITY":0.0184874,"INCLINATION":86.4703,"RA_OF_ASC_NODE":280.5458,"ARG_OF_PERICENTER":167.7052,"MEAN_ANOMALY":7.5808,"EPHEMERIS_TYPE":0,"CLASSIFICATION_TYPE":"U","NORAD_CAT_ID":34492,"ELEMENT_SET_NO":999,"REV_AT_EPOCH":86962,"BSTAR":0.0051587557,"MEAN_MOTION_DOT":0.00015585,"MEAN_MOTION_DDOT":0},{"OBJECT_NAME":"IRIDIUM 33 DEB","OBJECT_ID":"1997-051GN","EPOCH":"2026-04-26T15:08:18.254112","MEAN_MOTION":14.27960618,"ECCENTRICITY":0.00772149,"INCLINATION":86.2812,"RA_OF_ASC_NODE":354.7704,"ARG_OF_PERICENTER":263.8696,"MEAN_ANOMALY":124.8489,"EPHEMERIS_TYPE":0,"CLASSIFICATION_TYPE":"U","NORAD_CAT_ID":34497,"ELEMENT_SET_NO":999,"REV_AT_EPOCH":88808,"BSTAR":0.0005170957,"MEAN_MOTION_DOT":1.34e-5,"MEAN_MOTION_DDOT":0},{"OBJECT_NAME":"IRIDIUM 33 DEB","OBJECT_ID":"1997-051GZ","EPOCH":"2026-04-27T06:41:37.476672","MEAN_MOTION":14.39430236,"ECCENTRICITY":0.00667046,"INCLINATION":86.3715,"RA_OF_ASC_NODE":45.0969,"ARG_OF_PERICENTER":87.4439,"MEAN_ANOMALY":273.4394,"EPHEMERIS_TYPE":0,"CLASSIFICATION_TYPE":"U","NORAD_CAT_ID":34508,"ELEMENT_SET_NO":999,"REV_AT_EPOCH":89258,"BSTAR":0.0012440402,"MEAN_MOTION_DOT":3.994e-5,"MEAN_MOTION_DDOT":0},{"OBJECT_NAME":"IRIDIUM 33 DEB","OBJECT_ID":"1997-051HN","EPOCH":"2026-04-27T02:04:57.156960","MEAN_MOTION":14.6523885,"ECCENTRICITY":0.00042538,"INCLINATION":86.3786,"RA_OF_ASC_NODE":330.8857,"ARG_OF_PERICENTER":130.7968,"MEAN_ANOMALY":229.3615,"EPHEMERIS_TYPE":0,"CLASSIFICATION_TYPE":"U","NORAD_CAT_ID":34521,"ELEMENT_SET_NO":999,"REV_AT_EPOCH":90453,"BSTAR":0.0010624555,"MEAN_MOTION_DOT":5.744e-5,"MEAN_MOTION_DDOT":0},{"OBJECT_NAME":"IRIDIUM 33 DEB","OBJECT_ID":"1997-051HS","EPOCH":"2026-04-27T03:05:13.307136","MEAN_MOTION":14.43281953,"ECCENTRICITY":0.0005397,"INCLINATION":86.3753,"RA_OF_ASC_NODE":349.0607,"ARG_OF_PERICENTER":28.443,"MEAN_ANOMALY":125.3095,"EPHEMERIS_TYPE":0,"CLASSIFICATION_TYPE":"U","NORAD_CAT_ID":34525,"ELEMENT_SET_NO":999,"REV_AT_EPOCH":90040,"BSTAR":0.0002615968,"MEAN_MOTION_DOT":9.0e-6,"MEAN_MOTION_DDOT":0},{"OBJECT_NAME":"IRIDIUM 33 DEB","OBJECT_ID":"1997-051HW","EPOCH":"2026-04-27T01:36:17.648352","MEAN_MOTION":14.40795774,"ECCENTRICITY":0.00069214,"INCLINATION":86.3645,"RA_OF_ASC_NODE":337.7432,"ARG_OF_PERICENTER":108.3797,"MEAN_ANOMALY":251.8156,"EPHEMERIS_TYPE":0,"CLASSIFICATION_TYPE":"U","NORAD_CAT_ID":34529,"ELEMENT_SET_NO":999,"REV_AT_EPOCH":90090,"BSTAR":0.00016638885,"MEAN_MOTION_DOT":5.52e-6,"MEAN_MOTION_DDOT":0},{"OBJECT_NAME":"IRIDIUM 33 DEB","OBJECT_ID":"1997-051JF","EPOCH":"2026-04-26T23:17:45.047328","MEAN_MOTION":14.43484579,"ECCENTRICITY":0.003242,"INCLINATION":86.2722,"RA_OF_ASC_NODE":306.2956,"ARG_OF_PERICENTER":236.3044,"MEAN_ANOMALY":277.1647,"EPHEMERIS_TYPE":0,"CLASSIFICATION_TYPE":"U","NORAD_CAT_ID":34538,"ELEMENT_SET_NO":999,"REV_AT_EPOCH":89706,"BSTAR":0.00059051,"MEAN_MOTION_DOT":2.028e-5,"MEAN_MOTION_DDOT":0},{"OBJECT_NAME":"IRIDIUM 33 DEB","OBJECT_ID":"1997-051JH","EPOCH":"2026-04-27T07:03:26.854848","MEAN_MOTION":14.78440019,"ECCENTRICITY":0.0016407,"INCLINATION":86.3085,"RA_OF_ASC_NODE":245.4478,"ARG_OF_PERICENTER":65.7871,"MEAN_ANOMALY":313.8302,"EPHEMERIS_TYPE":0,"CLASSIFICATION_TYPE":"U","NORAD_CAT_ID":34540,"ELEMENT_SET_NO":999,"REV_AT_EPOCH":91022,"BSTAR":0.0017940864,"MEAN_MOTION_DOT":0.00013141,"MEAN_MOTION_DDOT":0},{"OBJECT_NAME":"IRIDIUM 33 DEB","OBJECT_ID":"1997-051JZ","EPOCH":"2026-04-27T00:27:46.185984","MEAN_MOTION":14.14045901,"ECCENTRICITY":0.01754616,"INCLINATION":86.3931,"RA_OF_ASC_NODE":227.2136,"ARG_OF_PERICENTER":229.5808,"MEAN_ANOMALY":128.9959,"EPHEMERIS_TYPE":0,"CLASSIFICATION_TYPE":"U","NORAD_CAT_ID":34648,"ELEMENT_SET_NO":999,"REV_AT_EPOCH":86871,"BSTAR":0.0037162606,"MEAN_MOTION_DOT":8.207e-5,"MEAN_MOTION_DDOT":0},{"OBJECT_NAME":"IRIDIUM 33 DEB","OBJECT_ID":"1997-051KC","EPOCH":"2026-04-26T21:03:50.690592","MEAN_MOTION":14.27818231,"ECCENTRICITY":0.01362832,"INCLINATION":86.277,"RA_OF_ASC_NODE":82.9288,"ARG_OF_PERICENTER":127.1241,"MEAN_ANOMALY":234.2495,"EPHEMERIS_TYPE":0,"CLASSIFICATION_TYPE":"U","NORAD_CAT_ID":34651,"ELEMENT_SET_NO":999,"REV_AT_EPOCH":87823,"BSTAR":0.0022812885,"MEAN_MOTION_DOT":6.247e-5,"MEAN_MOTION_DDOT":0},{"OBJECT_NAME":"IRIDIUM 33 DEB","OBJECT_ID":"1997-051KD","EPOCH":"2026-04-27T05:20:42.715104","MEAN_MOTION":14.63319286,"ECCENTRICITY":0.00274697,"INCLINATION":86.3269,"RA_OF_ASC_NODE":279.6051,"ARG_OF_PERICENTER":189.1625,"MEAN_ANOMALY":347.8426,"EPHEMERIS_TYPE":0,"CLASSIFICATION_TYPE":"U","NORAD_CAT_ID":34652,"ELEMENT_SET_NO":999,"REV_AT_EPOCH":90464,"BSTAR":0.00094953116,"MEAN_MOTION_DOT":4.949e-5,"MEAN_MOTION_DDOT":0},{"OBJECT_NAME":"IRIDIUM 33 DEB","OBJECT_ID":"1997-051KM","EPOCH":"2026-04-27T02:31:49.734336","MEAN_MOTION":14.55639147,"ECCENTRICITY":0.00077444,"INCLINATION":86.3782,"RA_OF_ASC_NODE":338.1509,"ARG_OF_PERICENTER":282.3441,"MEAN_ANOMALY":232.7386,"EPHEMERIS_TYPE":0,"CLASSIFICATION_TYPE":"U","NORAD_CAT_ID":34690,"ELEMENT_SET_NO":999,"REV_AT_EPOCH":90063,"BSTAR":0.0003888191,"MEAN_MOTION_DOT":1.718e-5,"MEAN_MOTION_DDOT":0},{"OBJECT_NAME":"IRIDIUM 33 DEB","OBJECT_ID":"1997-051KT","EPOCH":"2026-04-27T01:28:52.379904","MEAN_MOTION":14.75134155,"ECCENTRICITY":0.00621315,"INCLINATION":86.1831,"RA_OF_ASC_NODE":324.0207,"ARG_OF_PERICENTER":61.7607,"MEAN_ANOMALY":92.1877,"EPHEMERIS_TYPE":0,"CLASSIFICATION_TYPE":"U","NORAD_CAT_ID":34696,"ELEMENT_SET_NO":999,"REV_AT_EPOCH":88661,"BSTAR":0.0040589502,"MEAN_MOTION_DOT":0.00028359,"MEAN_MOTION_DDOT":0},{"OBJECT_NAME":"IRIDIUM 33 DEB","OBJECT_ID":"1997-051LJ","EPOCH":"2026-04-27T02:10:57.540000","MEAN_MOTION":14.40863681,"ECCENTRICITY":0.00178534,"INCLINATION":86.3394,"RA_OF_ASC_NODE":334.6901,"ARG_OF_PERICENTER":127.3845,"MEAN_ANOMALY":27.4341,"EPHEMERIS_TYPE":0,"CLASSIFICATION_TYPE":"U","NORAD_CAT_ID":34765,"ELEMENT_SET_NO":999,"REV_AT_EPOCH":89562,"BSTAR":0.00030824953,"MEAN_MOTION_DOT":1.009e-5,"MEAN_MOTION_DDOT":0},{"OBJECT_NAME":"IRIDIUM 33 DEB","OBJECT_ID":"1997-051MH","EPOCH":"2026-04-26T21:28:51.397248","MEAN_MOTION":14.53324525,"ECCENTRICITY":0.0020074,"INCLINATION":86.3958,"RA_OF_ASC_NODE":352.7196,"ARG_OF_PERICENTER":9.7351,"MEAN_ANOMALY":121.3968,"EPHEMERIS_TYPE":0,"CLASSIFICATION_TYPE":"U","NORAD_CAT_ID":34833,"ELEMENT_SET_NO":999,"REV_AT_EPOCH":89677,"BSTAR":0.00053646,"MEAN_MOTION_DOT":2.254e-5,"MEAN_MOTION_DDOT":0}]
