IRIDIUM 33 DEB          
1 34487U 97051GC  26116.99178738  .00000551  00000+0  15629-3 0  9992
2 34487  86.3404 314.1633 0032440  46.1712 106.5846 14.43435740901991
IRIDIUM 33 DEB          
1 34492U 97051GH  26115.21251245  .00015585  00000+0  51588-2 0  9993
2 34492  86.4703 280.5458 0184874 167.7052   7.5808 14.28570693869628
IRIDIUM 33 DEB          
1 34497U 97051GN  26116.63076683  .00001340  00000+0  51710-3 0  9998
2 34497  86.2812 354.7704 0077214 263.8696 124.8489 14.27960618888089
IRIDIUM 33 DEB          
1 34508U 97051GZ  26117.27890598  .00003994  00000+0  12440-2 0  9994
2 34508  86.3715  45.0969 0066704  87.4439 273.4394 14.39430236892582
IRIDIUM 33 DEB          
1 34521U 97051HN  26117.08677265  .00005744  00000+0  10625-2 0  9990
2 34521  86.3786 330.8857 0004253 130.7968 229.3615 14.65238850904538
IRIDIUM 33 DEB          
1 34525U 97051HS  26117.12862624  .00000900  00000+0  26160-3 0  9995
2 34525  86.3753 349.0607 0005397  28.4430 125.3095 14.43281953900405
IRIDIUM 33 DEB          
1 34529U 97051HW  26117.06687093  .00000552  00000+0  16639-3 0  9990
2 34529  86.3645 337.7432 0006921 108.3797 251.8156 14.40795774900903
IRIDIUM 33 DEB          
1 34538U 97051JF  26116.97066027  .00002028  00000+0  59051-3 0  9992
2 34538  86.2722 306.2956 0032420 236.3044 277.1647 14.43484579897069
IRIDIUM 33 DEB          
1 34540U 97051JH  26117.29406082  .00013141  00000+0  17941-2 0  9999
2 34540  86.3085 245.4478 0016407  65.7871 313.8302 14.78440019910226
IRIDIUM 33 DEB          
1 34648U 97051JZ  26117.01928456  .00008207  00000+0  37163-2 0  9997
2 34648  86.3931 227.2136 0175461 229.5808 128.9959 14.14045901868710
IRIDIUM 33 DEB          
1 34651U 97051KC  26116.87767003  .00006247  00000+0  22813-2 0  9991
2 34651  86.2770  82.9288 0136283 127.1241 234.2495 14.27818231878233
IRIDIUM 33 DEB          
1 34652U 97051KD  26117.22271661  .00004949  00000+0  94953-3 0  9994
2 34652  86.3269 279.6051 0027469 189.1625 347.8426 14.63319286904646
IRIDIUM 33 DEB          
1 34690U 97051KM  26117.10543674  .00001718  00000+0  38882-3 0  9999
2 34690  86.3782 338.1509 0007744 282.3441 232.7386 14.55639147900637
IRIDIUM 33 DEB          
1 34696U 97051KT  26117.06171736  .00028359  00000+0  40590-2 0  9994
2 34696  86.1831 324.0207 0062131  61.7607  92.1877 14.75134155886614
IRIDIUM 33 DEB          
1 34765U 97051LJ  26117.09094375  .00001009  00000+0  30825-3 0  9991
2 34765  86.3394 334.6901 0017853 127.3845  27.4341 14.40863681895622
IRIDIUM 33 DEB          
1 34833U 97051MH  26116.89503932  .00002254  00000+0  53646-3 0  9997
2 34833  86.3958 352.7196 0020074   9.7351 121.3968 14.53324525896774
